start=new Date('2021-10-24T00:00:00.000Z').valueOf();
sats=[{"EPHEMERIS_TYPE":"0","CENTER_NAME":"EARTH","INCLINATION":"53.0548","CLASSIFICATION_TYPE":"U","NORAD_CAT_ID":"46041","MEAN_ANOMALY":"273.0390","COUNTRY_CODE":"US","BSTAR":"0.00006327500000","GP_ID":"188022630","REF_FRAME":"TEME","TIME_SYSTEM":"UTC","MEAN_MOTION":"15.06394763","MEAN_MOTION_DDOT":"0.0000000000000","DECAY_DATE":null,"OBJECT_ID":"2020-055Q","SITE":"AFETR","ARG_OF_PERICENTER":"87.0795","OBJECT_NAME":"STARLINK-1580","FILE":"3181152","APOAPSIS":"548.411","ELEMENT_SET_NO":"999","EPOCH":"2021-10-23T18:02:22.891776","TLE_LINE2":"2 46041  53.0548 100.0508 0001706  87.0795 273.0390 15.06394763 68019","MEAN_MOTION_DOT":"0.00000661","OBJECT_TYPE":"PAYLOAD","PERIAPSIS":"546.048","MEAN_ELEMENT_THEORY":"SGP4","LAUNCH_DATE":"2020-08-07","REV_AT_EPOCH":"6801","TLE_LINE1":"1 46041U 20055Q   21296.75165384  .00000661  00000-0  63275-4 0  9996","RCS_SIZE":"LARGE","SEMIMAJOR_AXIS":"6925.365","ECCENTRICITY":"0.00017060","RA_OF_ASC_NODE":"100.0508","PERIOD":"95.592"},{"EPOCH":"2021-10-23T17:37:10.380288","TLE_LINE2":"2 46042  53.0548 100.1264 0001552  86.8394 273.2773 15.06403305 68000","OBJECT_TYPE":"PAYLOAD","MEAN_MOTION_DOT":"0.00000517","LAUNCH_DATE":"2020-08-07","MEAN_ELEMENT_THEORY":"SGP4","PERIAPSIS":"546.129","REV_AT_EPOCH":"6800","TLE_LINE1":"1 46042U 20055R   21296.73414792  .00000517  00000-0  53630-4 0  9999","RCS_SIZE":"LARGE","ECCENTRICITY":"0.00015520","SEMIMAJOR_AXIS":"6925.338","RA_OF_ASC_NODE":"100.1264","PERIOD":"95.592","EPHEMERIS_TYPE":"0","CENTER_NAME":"EARTH","CLASSIFICATION_TYPE":"U","INCLINATION":"53.0548","MEAN_ANOMALY":"273.2773","NORAD_CAT_ID":"46042","COUNTRY_CODE":"US","BSTAR":"0.00005363000000","GP_ID":"188023382","REF_FRAME":"TEME","TIME_SYSTEM":"UTC","MEAN_MOTION_DDOT":"0.0000000000000","MEAN_MOTION":"15.06403305","OBJECT_ID":"2020-055R","DECAY_DATE":null,"SITE":"AFETR","ARG_OF_PERICENTER":"86.8394","APOAPSIS":"548.278","FILE":"3181152","ELEMENT_SET_NO":"999","OBJECT_NAME":"STARLINK-1581"},{"TLE_LINE1":"1 46043U 20055S   21296.72678587 -.00001447  00000-0 -78268-4 0  9992","SEMIMAJOR_AXIS":"6925.373","RCS_SIZE":"LARGE","ECCENTRICITY":"0.00015130","RA_OF_ASC_NODE":"100.1588","PERIOD":"95.593","EPOCH":"2021-10-23T17:26:34.299168","TLE_LINE2":"2 46043  53.0548 100.1588 0001513  80.0717 280.0443 15.06391871 68039","MEAN_MOTION_DOT":"-0.00001447","OBJECT_TYPE":"PAYLOAD","PERIAPSIS":"546.191","MEAN_ELEMENT_THEORY":"SGP4","LAUNCH_DATE":"2020-08-07","REV_AT_EPOCH":"6803","TIME_SYSTEM":"UTC","MEAN_MOTION":"15.06391871","MEAN_MOTION_DDOT":"0.0000000000000","DECAY_DATE":null,"OBJECT_ID":"2020-055S","ARG_OF_PERICENTER":"80.0717","SITE":"AFETR","OBJECT_NAME":"STARLINK-1582","ELEMENT_SET_NO":"999","FILE":"3181152","APOAPSIS":"548.286","EPHEMERIS_TYPE":"0","CENTER_NAME":"EARTH","INCLINATION":"53.0548","CLASSIFICATION_TYPE":"U","NORAD_CAT_ID":"46043","MEAN_ANOMALY":"280.0443","COUNTRY_CODE":"US","BSTAR":"-0.00007826800000","REF_FRAME":"TEME","GP_ID":"188023133"},{"TIME_SYSTEM":"UTC","DECAY_DATE":null,"OBJECT_ID":"2020-055T","MEAN_MOTION":"15.06400064","MEAN_MOTION_DDOT":"0.0000000000000","SITE":"AFETR","ARG_OF_PERICENTER":"80.8126","OBJECT_NAME":"STARLINK-1584","FILE":"3181152","APOAPSIS":"548.227","ELEMENT_SET_NO":"999","EPHEMERIS_TYPE":"0","INCLINATION":"53.0540","CLASSIFICATION_TYPE":"U","CENTER_NAME":"EARTH","COUNTRY_CODE":"US","NORAD_CAT_ID":"46044","MEAN_ANOMALY":"279.3028","REF_FRAME":"TEME","GP_ID":"188021881","BSTAR":"-0.00002190700000","RCS_SIZE":"LARGE","ECCENTRICITY":"0.00014630","SEMIMAJOR_AXIS":"6925.348","TLE_LINE1":"1 46044U 20055T   21296.74153011 -.00000608  00000-0 -21907-4 0  9991","RA_OF_ASC_NODE":"100.0850","PERIOD":"95.592","TLE_LINE2":"2 46044  53.0540 100.0850 0001463  80.8126 279.3028 15.06400064 68045","EPOCH":"2021-10-23T17:47:48.201504","MEAN_MOTION_DOT":"-0.00000608","OBJECT_TYPE":"PAYLOAD","REV_AT_EPOCH":"6804","MEAN_ELEMENT_THEORY":"SGP4","PERIAPSIS":"546.200","LAUNCH_DATE":"2020-08-07"},{"ARG_OF_PERICENTER":"84.1271","SITE":"AFETR","ELEMENT_SET_NO":"999","FILE":"3181152","APOAPSIS":"548.172","OBJECT_NAME":"STARLINK-1591","TIME_SYSTEM":"UTC","MEAN_MOTION_DDOT":"0.0000000000000","MEAN_MOTION":"15.06392977","OBJECT_ID":"2020-055U","DECAY_DATE":null,"NORAD_CAT_ID":"46045","MEAN_ANOMALY":"275.9872","COUNTRY_CODE":"US","BSTAR":"-0.00001762700000","REF_FRAME":"TEME","GP_ID":"188022131","EPHEMERIS_TYPE":"0","CENTER_NAME":"EARTH","CLASSIFICATION_TYPE":"U","INCLINATION":"53.0536","PERIOD":"95.593","TLE_LINE1":"1 46045U 20055U   21296.75258841 -.00000544  00000-0 -17627-4 0  9993","RCS_SIZE":"LARGE","ECCENTRICITY":"0.00013530","SEMIMAJOR_AXIS":"6925.370","RA_OF_ASC_NODE":"100.0429","LAUNCH_DATE":"2020-08-07","PERIAPSIS":"546.298","MEAN_ELEMENT_THEORY":"SGP4","REV_AT_EPOCH":"6802","EPOCH":"2021-10-23T18:03:43.638624","TLE_LINE2":"2 46045  53.0536 100.0429 0001353  84.1271 275.9872 15.06392977 68029","OBJECT_TYPE":"PAYLOAD","MEAN_MOTION_DOT":"-0.00000544"},{"BSTAR":"0.00004010500000","GP_ID":"188022883","REF_FRAME":"TEME","NORAD_CAT_ID":"46046","MEAN_ANOMALY":"325.2647","COUNTRY_CODE":"US","CENTER_NAME":"EARTH","CLASSIFICATION_TYPE":"U","INCLINATION":"53.0561","EPHEMERIS_TYPE":"0","FILE":"3181152","APOAPSIS":"441.213","ELEMENT_SET_NO":"999","OBJECT_NAME":"STARLINK-1514","ARG_OF_PERICENTER":"34.8502","SITE":"AFETR","MEAN_MOTION_DDOT":"0.0000000000000","MEAN_MOTION":"15.42170270","OBJECT_ID":"2020-055V","DECAY_DATE":null,"TIME_SYSTEM":"UTC","LAUNCH_DATE":"2020-08-07","MEAN_ELEMENT_THEORY":"SGP4","PERIAPSIS":"438.202","REV_AT_EPOCH":"6827","OBJECT_TYPE":"PAYLOAD","MEAN_MOTION_DOT":"0.00001334","EPOCH":"2021-10-23T16:17:05.541504","TLE_LINE2":"2 46046  53.0561  81.0550 0002208  34.8502 325.2647 15.42170270 68276","PERIOD":"93.375","RA_OF_ASC_NODE":"81.0550","TLE_LINE1":"1 46046U 20055V   21296.67853636  .00001334  00000-0  40105-4 0  9991","SEMIMAJOR_AXIS":"6817.842","RCS_SIZE":"LARGE","ECCENTRICITY":"0.00022080"},{"TLE_LINE2":"2 46047  53.0553  89.9595 0001457  79.0390 281.0763 15.06402838 68181","EPOCH":"2021-10-23T18:31:35.500224","MEAN_MOTION_DOT":"-0.00000730","OBJECT_TYPE":"PAYLOAD","REV_AT_EPOCH":"6818","PERIAPSIS":"546.196","MEAN_ELEMENT_THEORY":"SGP4","LAUNCH_DATE":"2020-08-07","ECCENTRICITY":"0.00014570","RCS_SIZE":"LARGE","SEMIMAJOR_AXIS":"6925.340","TLE_LINE1":"1 46047U 20055W   21296.77193866 -.00000730  00000-0 -30137-4 0  9990","RA_OF_ASC_NODE":"89.9595","PERIOD":"95.592","EPHEMERIS_TYPE":"0","INCLINATION":"53.0553","CLASSIFICATION_TYPE":"U","CENTER_NAME":"EARTH","COUNTRY_CODE":"US","NORAD_CAT_ID":"46047","MEAN_ANOMALY":"281.0763","GP_ID":"188023633","REF_FRAME":"TEME","BSTAR":"-0.00003013700000","TIME_SYSTEM":"UTC","DECAY_DATE":null,"OBJECT_ID":"2020-055W","MEAN_MOTION":"15.06402838","MEAN_MOTION_DDOT":"0.0000000000000","ARG_OF_PERICENTER":"79.0390","SITE":"AFETR","OBJECT_NAME":"STARLINK-1524","APOAPSIS":"548.214","FILE":"3181152","ELEMENT_SET_NO":"999"},{"NORAD_CAT_ID":"46048","MEAN_ANOMALY":"271.2018","COUNTRY_CODE":"US","BSTAR":"0.00007429700000","REF_FRAME":"TEME","GP_ID":"188022381","EPHEMERIS_TYPE":"0","CENTER_NAME":"EARTH","INCLINATION":"53.0533","CLASSIFICATION_TYPE":"U","SITE":"AFETR","ARG_OF_PERICENTER":"88.9136","OBJECT_NAME":"STARLINK-1527","ELEMENT_SET_NO":"999","FILE":"3181152","APOAPSIS":"548.208","TIME_SYSTEM":"UTC","MEAN_MOTION":"15.06400051","MEAN_MOTION_DDOT":"0.0000000000000","DECAY_DATE":null,"OBJECT_ID":"2020-055X","MEAN_ELEMENT_THEORY":"SGP4","PERIAPSIS":"546.219","LAUNCH_DATE":"2020-08-07","REV_AT_EPOCH":"6816","EPOCH":"2021-10-23T18:26:16.800000","TLE_LINE2":"2 46048  53.0533  89.9696 0001436  88.9136 271.2018 15.06400051 68163","MEAN_MOTION_DOT":"0.00000825","OBJECT_TYPE":"PAYLOAD","PERIOD":"95.592","TLE_LINE1":"1 46048U 20055X   21296.76825000  .00000825  00000-0  74297-4 0  9990","RCS_SIZE":"LARGE","SEMIMAJOR_AXIS":"6925.348","ECCENTRICITY":"0.00014360","RA_OF_ASC_NODE":"89.9696"},{"COUNTRY_CODE":"US","NORAD_CAT_ID":"46049","MEAN_ANOMALY":"268.4071","REF_FRAME":"TEME","GP_ID":"188022631","BSTAR":"-0.00004881800000","EPHEMERIS_TYPE":"0","INCLINATION":"53.0546","CLASSIFICATION_TYPE":"U","CENTER_NAME":"EARTH","ARG_OF_PERICENTER":"91.7106","SITE":"AFETR","OBJECT_NAME":"STARLINK-1530","FILE":"3181152","ELEMENT_SET_NO":"999","APOAPSIS":"548.369","TIME_SYSTEM":"UTC","DECAY_DATE":null,"OBJECT_ID":"2020-055Y","MEAN_MOTION":"15.06392993","MEAN_MOTION_DDOT":"0.0000000000000","REV_AT_EPOCH":"6819","MEAN_ELEMENT_THEORY":"SGP4","PERIAPSIS":"546.101","LAUNCH_DATE":"2020-08-07","TLE_LINE2":"2 46049  53.0546  89.9892 0001638  91.7106 268.4071 15.06392993 68194","EPOCH":"2021-10-23T18:20:58.859232","MEAN_MOTION_DOT":"-0.00001008","OBJECT_TYPE":"PAYLOAD","PERIOD":"95.593","RCS_SIZE":"LARGE","SEMIMAJOR_AXIS":"6925.370","ECCENTRICITY":"0.00016380","TLE_LINE1":"1 46049U 20055Y   21296.76457013 -.00001008  00000-0 -48818-4 0  9992","RA_OF_ASC_NODE":"89.9892"},{"TLE_LINE1":"1 46050U 20055Z   21296.64585900  .00001683  00000-0  48115-4 0  9995","RCS_SIZE":"LARGE","SEMIMAJOR_AXIS":"6817.844","ECCENTRICITY":"0.00015270","RA_OF_ASC_NODE":"81.1866","PERIOD":"93.375","EPOCH":"2021-10-23T15:30:02.217600","TLE_LINE2":"2 46050  53.0553  81.1866 0001527  83.5977 276.5201 15.42169731 68301","MEAN_MOTION_DOT":"0.00001683","OBJECT_TYPE":"PAYLOAD","PERIAPSIS":"438.668","MEAN_ELEMENT_THEORY":"SGP4","LAUNCH_DATE":"2020-08-07","REV_AT_EPOCH":"6830","TIME_SYSTEM":"UTC","MEAN_MOTION":"15.42169731","MEAN_MOTION_DDOT":"0.0000000000000","DECAY_DATE":null,"OBJECT_ID":"2020-055Z","ARG_OF_PERICENTER":"83.5977","SITE":"AFETR","OBJECT_NAME":"STARLINK-1535","APOAPSIS":"440.750","FILE":"3181152","ELEMENT_SET_NO":"999","EPHEMERIS_TYPE":"0","CENTER_NAME":"EARTH","INCLINATION":"53.0553","CLASSIFICATION_TYPE":"U","MEAN_ANOMALY":"276.5201","NORAD_CAT_ID":"46050","COUNTRY_CODE":"US","BSTAR":"0.00004811500000","REF_FRAME":"TEME","GP_ID":"188023383"}];
